EUTELSAT QUANTUM        
1 49056U 21069B   25299.48360990  .00000138  00000+0  00000+0 0  9998
2 49056   0.0540  67.8423 0002523 161.4624  27.6369  1.00272198 15583
EUTELSAT KONNECT VHTS   
1 53765U 22110A   25299.31641683  .00000029  00000+0  00000+0 0  9990
2 53765   0.0584  92.3629 0002617  96.5939 322.6168  1.00270096  4482
EUTELSAT HOTBIRD 13F    
1 54048U 22134A   25299.19419959  .00000099  00000+0  00000+0 0  9993
2 54048   0.0535 284.7974 0002137  82.8201 110.1501  1.00271380 11037
EUTELSAT HOTBIRD 13G    
1 54225U 22146A   25299.33405648  .00000100  00000+0  00000+0 0  9992
2 54225   0.0463 238.3488 0002130 295.7810 354.1015  1.00273254  5128
EUTELSAT 10B            
1 54259U 22157A   25299.35253213  .00000082  00000+0  00000+0 0  9991
2 54259   0.0580  88.1198 0002655  11.8140  71.9736  1.00281163 10688
EUTELSAT 36D            
1 59346U 24059A   25299.48126987  .00000168  00000+0  00000+0 0  9992
2 59346   0.0131 248.8410 0000372 229.3879 126.0010  1.00271089  5804
